[{"OBJECT_NAME":"STARLINK-2377","OBJECT_ID":"2021-018L","EPOCH":"2026-03-09T17:36:08.477280","MEAN_MOTION":15.29354486,"ECCENTRICITY":0.00011714,"INCLINATION":53.1565,"RA_OF_ASC_NODE":254.8446,"ARG_OF_PERICENTER":128.8916,"MEAN_ANOMALY":231.2189,"EPHEMERIS_TYPE":0,"CLASSIFICATION_TYPE":"U","NORAD_CAT_ID":47797,"ELEMENT_SET_NO":999,"REV_AT_EPOCH":27655,"BSTAR":7.1115072e-5,"MEAN_MOTION_DOT":1.697e-5,"MEAN_MOTION_DDOT":0},{"OBJECT_NAME":"NUSAT-44 (MARIA MITCHELL)","OBJECT_ID":"2024-043AA","EPOCH":"2026-03-09T22:12:18.524160","MEAN_MOTION":15.29764305,"ECCENTRICITY":0.0007331,"INCLINATION":97.5299,"RA_OF_ASC_NODE":207.7691,"ARG_OF_PERICENTER":214.9017,"MEAN_ANOMALY":145.1743,"EPHEMERIS_TYPE":0,"CLASSIFICATION_TYPE":"U","NORAD_CAT_ID":59122,"ELEMENT_SET_NO":999,"REV_AT_EPOCH":11209,"BSTAR":0.00061063193,"MEAN_MOTION_DOT":0.00017562,"MEAN_MOTION_DDOT":0}]
